[{"OBJECT_NAME":"ONEWEB-0519","OBJECT_ID":"2022-138AA","EPOCH":"2026-03-09T18:36:08.004096","MEAN_MOTION":13.19725885,"ECCENTRICITY":0.00014682,"INCLINATION":87.9235,"RA_OF_ASC_NODE":324.7649,"ARG_OF_PERICENTER":79.5494,"MEAN_ANOMALY":280.5804,"EPHEMERIS_TYPE":0,"CLASSIFICATION_TYPE":"U","NORAD_CAT_ID":54137,"ELEMENT_SET_NO":999,"REV_AT_EPOCH":16372,"BSTAR":-0.00024916148,"MEAN_MOTION_DOT":-8.7e-7,"MEAN_MOTION_DDOT":0},{"OBJECT_NAME":"CZ-4C DEB","OBJECT_ID":"2010-009J","EPOCH":"2026-03-08T12:45:11.559456","MEAN_MOTION":13.00348593,"ECCENTRICITY":0.02857827,"INCLINATION":63.4883,"RA_OF_ASC_NODE":44.7765,"ARG_OF_PERICENTER":354.0138,"MEAN_ANOMALY":5.7476,"EPHEMERIS_TYPE":0,"CLASSIFICATION_TYPE":"U","NORAD_CAT_ID":38305,"ELEMENT_SET_NO":999,"REV_AT_EPOCH":59471,"BSTAR":0.00053283401,"MEAN_MOTION_DOT":1.16e-6,"MEAN_MOTION_DDOT":0}]
